[{"OBJECT_NAME":"TIANMU-1 22","OBJECT_ID":"2023-208D","EPOCH":"2026-03-09T22:39:05.738688","MEAN_MOTION":15.29457749,"ECCENTRICITY":0.00031332,"INCLINATION":97.4379,"RA_OF_ASC_NODE":184.9419,"ARG_OF_PERICENTER":351.9312,"MEAN_ANOMALY":8.1877,"EPHEMERIS_TYPE":0,"CLASSIFICATION_TYPE":"U","NORAD_CAT_ID":58663,"ELEMENT_SET_NO":999,"REV_AT_EPOCH":12215,"BSTAR":0.00038239675,"MEAN_MOTION_DOT":0.00010851,"MEAN_MOTION_DDOT":0},{"OBJECT_NAME":"STARLINK-36049","OBJECT_ID":"2025-278Q","EPOCH":"2026-03-09T19:21:59.994432","MEAN_MOTION":15.27568749,"ECCENTRICITY":2.147e-5,"INCLINATION":42.9964,"RA_OF_ASC_NODE":113.9982,"ARG_OF_PERICENTER":329.738,"MEAN_ANOMALY":30.3459,"EPHEMERIS_TYPE":0,"CLASSIFICATION_TYPE":"U","NORAD_CAT_ID":66805,"ELEMENT_SET_NO":999,"REV_AT_EPOCH":1522,"BSTAR":0.00079065186,"MEAN_MOTION_DOT":0.00021551,"MEAN_MOTION_DDOT":0}]
